ONEWEB-0018             
1 45434U 20020L   25232.83751084 -.00000502  00000+0 -14524-2 0  9990
2 45434  87.8777  80.9149 0001750  82.5571 277.5756 13.11417574263260
ONEWEB-0083             
1 45435U 20020M   25232.82733325 -.00000302  00000+0 -88706-3 0  9990
2 45435  87.8786  80.9046 0001679  85.3166 274.8154 13.11414460263306
ONEWEB-0095             
1 45436U 20020N   25232.81902823  .00000753  00000+0  20901-2 0  9991
2 45436  87.8775  80.9282 0001670 111.9677 248.1628 13.11412417263301
ONEWEB-0092             
1 45437U 20020P   25232.63829930  .00000415  00000+0  11361-2 0  9994
2 45437  87.8788  80.9539 0001760  92.3832 267.7498 13.11417551263391
ONEWEB-0085             
1 45438U 20020Q   25232.82590390 -.00000304  00000+0 -90071-3 0  9996
2 45438  87.8780  80.9309 0001722  90.1680 269.9644 13.10855683263303
ONEWEB-0096             
1 45439U 20020R   25232.82903615 -.00000412  00000+0 -11978-2 0  9993
2 45439  87.8793  80.8967 0001867  80.4541 279.6798 13.11415167263291
ONEWEB-0037             
1 45440U 20020S   25232.80954437  .00000399  00000+0  10890-2 0  9995
2 45440  87.8796  80.8657 0001730  88.6081 271.5245 13.11416235263329
ONEWEB-0042             
1 45441U 20020T   25232.81871328  .00000099  00000+0  24391-3 0  9993
2 45441  87.8785  80.9068 0001834  87.9203 272.2135 13.11413745263293
